[{"OBJECT_NAME":"STARLINK-31620","OBJECT_ID":"2024-068F","EPOCH":"2026-03-09T07:16:40.742976","MEAN_MOTION":15.27579794,"ECCENTRICITY":0.00010879,"INCLINATION":43.0037,"RA_OF_ASC_NODE":33.2379,"ARG_OF_PERICENTER":268.8316,"MEAN_ANOMALY":91.2411,"EPHEMERIS_TYPE":0,"CLASSIFICATION_TYPE":"U","NORAD_CAT_ID":59460,"ELEMENT_SET_NO":999,"REV_AT_EPOCH":10850,"BSTAR":-1.1633077e-5,"MEAN_MOTION_DOT":-5.82e-6,"MEAN_MOTION_DDOT":0},{"OBJECT_NAME":"CZ-6A DEB","OBJECT_ID":"2024-140NC","EPOCH":"2026-03-09T01:19:44.598720","MEAN_MOTION":14.85954551,"ECCENTRICITY":0.01874643,"INCLINATION":89.0262,"RA_OF_ASC_NODE":281.6645,"ARG_OF_PERICENTER":160.2054,"MEAN_ANOMALY":200.6578,"EPHEMERIS_TYPE":0,"CLASSIFICATION_TYPE":"U","NORAD_CAT_ID":61086,"ELEMENT_SET_NO":999,"REV_AT_EPOCH":8276,"BSTAR":0.00091551765,"MEAN_MOTION_DOT":0.00011041,"MEAN_MOTION_DDOT":0}]
